OBJECT_NAME,OBJECT_ID,EPOCH,MEAN_MOTION,ECCENTRICITY,INCLINATION,RA_OF_ASC_NODE,ARG_OF_PERICENTER,MEAN_ANOMALY,EPHEMERIS_TYPE,CLASSIFICATION_TYPE,NORAD_CAT_ID,ELEMENT_SET_NO,REV_AT_EPOCH,BSTAR,MEAN_MOTION_DOT,MEAN_MOTION_DDOT
SL-16 R/B,1994-077B,2026-06-28T13:38:17.077344,14.15577798,.00035765,70.9830,119.2190,317.7707,42.3140,0,U,23405,999,63192,.49563361E-4,.49E-6,0
ARIANE 40+ R/B,1995-021B,2026-06-28T14:38:38.985216,14.39839226,.00071848,98.4409,249.5200,160.1384,4.9323,0,U,23561,999,63520,.88829944E-4,.235E-5,0
SL-16 R/B,1995-058B,2026-06-28T15:37:46.495776,14.15511799,.00144747,71.0230,307.2888,304.6721,55.3037,0,U,23705,999,58355,-.55052949E-4,-.155E-5,0
SL-16 R/B,1996-051B,2026-06-28T13:47:55.015584,14.12449902,.00164491,70.7652,300.5483,320.4561,39.5357,0,U,24298,999,53730,.95019595E-4,.126E-5,0
ORBVIEW 2 (SEASTAR),1997-037A,2026-06-28T10:48:54.139104,14.35558957,.00033363,98.8695,346.7822,93.9918,266.1648,0,U,24883,999,52436,.98143426E-4,.236E-5,0
SL-16 R/B,1998-043G,2026-06-28T14:08:01.884480,14.26070339,.00107868,98.8369,133.8465,56.5793,303.6416,0,U,25400,999,45479,.33114256E-4,.34E-6,0
SL-16 R/B,1998-045B,2026-06-28T14:35:08.739456,14.16204771,.00088907,71.0123,308.3110,227.0217,133.0162,0,U,25407,999,44280,.15576877E-3,.261E-5,0
ISS (ZARYA),1998-067A,2026-06-28T12:59:37.480128,15.49467065,.00042596,51.6322,243.8877,242.8085,117.2470,0,U,25544,999,57351,.11309881E-3,.5887E-4,0
CZ-4B R/B,1999-025C,2026-06-28T15:31:48.697824,14.18285249,.00375708,98.6478,221.1970,27.3400,83.7030,0,U,25732,999,40389,.39222467E-4,.38E-6,0
OKEAN-O,1999-039A,2026-06-28T15:13:48.830016,14.80480140,.00012844,97.9312,238.3009,70.0578,290.0772,0,U,25860,999,45080,.794173E-4,.556E-5,0
SL-16 R/B,1999-039B,2026-06-28T13:52:36.997536,14.81855611,.00133955,97.9834,238.4087,256.1399,103.8323,0,U,25861,999,45328,.63068064E-4,.445E-5,0
DELTA 2 R/B,1999-041E,2026-06-28T12:00:38.219040,14.12035159,.05010202,51.7626,218.6017,315.4544,40.7121,0,U,25876,999,37868,.21005911E-3,.107E-4,0
HELIOS 1B,1999-064A,2026-06-28T14:38:39.073344,14.88035227,.00024785,98.1605,85.0801,75.4512,284.6978,0,U,25977,999,70175,.14959217E-3,.1315E-4,0
TERRA,1999-068A,2026-06-28T14:36:06.308640,14.61111672,.00024692,97.9451,228.7016,157.6806,354.8700,0,U,25994,999,41127,.86126392E-4,.379E-5,0
SL-16 R/B,2000-006B,2026-06-28T13:57:00.293760,14.15839493,.00162672,71.0014,224.6676,5.0194,355.1089,0,U,26070,999,36425,.13952267E-3,.227E-5,0
TITAN 4B R/B,2000-047B,2026-06-28T14:01:05.926368,15.10258076,.00458965,67.9892,88.4931,275.6112,83.9805,0,U,26474,999,40965,.15997421E-3,.2548E-4,0
ENVISAT,2002-009A,2026-06-28T14:30:01.032768,14.39067292,.00013876,98.3838,130.6682,86.4123,86.9286,0,U,27386,999,27512,.37687851E-4,.74E-6,0
IDEFIX & ARIANE 42P R/B,2002-021B,2026-06-28T14:18:11.742336,14.31086940,.00109109,98.5944,116.9556,216.8844,143.1590,0,U,27422,999,25988,.84764153E-4,.18E-5,0
AQUA,2002-022A,2026-06-28T13:14:12.193728,14.62174378,.00007357,98.4282,149.0617,68.6565,356.5379,0,U,27424,999,28493,.15713764E-3,.741E-5,0
CZ-4B R/B,2002-024C,2026-06-28T15:33:31.946688,14.14565997,.00511382,98.8695,232.3938,68.3567,94.6045,0,U,27432,999,24492,.47119251E-4,.48E-6,0
MIDORI II (ADEOS-II),2002-056A,2026-06-28T14:50:21.377472,14.29355359,.00020425,98.7884,138.9756,61.9152,298.2236,0,U,27597,999,22614,.10444198E-3,.221E-5,0
H-2A R/B,2002-056E,2026-06-28T14:49:31.277568,14.33826699,.0069808,98.3316,135.8758,190.1466,343.3679,0,U,27601,999,23000,.772836E-4,.179E-5,0
CZ-4B R/B,2003-049C,2026-06-28T13:51:13.844448,14.55106840,.00469182,98.6900,178.8774,252.9416,106.6637,0,U,28059,999,20272,.69036853E-4,.25E-5,0
CZ-2C R/B,2004-012C,2026-06-28T05:50:32.582688,15.81206060,.00105376,97.7075,256.2098,242.5776,117.4419,0,U,28222,999,22164,.56861737E-3,.112588E-2,0
SL-16 R/B,2004-021B,2026-06-28T14:47:58.263648,14.14608307,.00067783,71.0007,359.7013,240.2572,119.7876,0,U,28353,999,13852,.1248433E-3,.192E-5,0
CZ-4B R/B,2004-035C,2026-06-28T15:18:45.941472,15.30781837,.00289469,97.3362,212.5829,295.1770,64.6469,0,U,28415,999,19687,.23010962E-3,.6854E-4,0
CZ-2C R/B,2004-046B,2026-06-28T14:53:39.798528,14.27028996,.01391425,98.1937,87.6866,186.2988,173.6450,0,U,28480,999,12432,.48121759E-4,.89E-6,0
ARIANE 5 R/B,2004-049H,2026-06-28T10:43:11.101728,14.85461669,.00836496,98.2727,352.1349,353.0373,6.9672,0,U,28499,999,16223,.66615206E-4,.546E-5,0
CZ-2D R/B,2005-024B,2026-06-28T15:03:03.512736,15.70817398,.00010824,97.3472,199.6359,18.6981,341.4322,0,U,28738,999,15713,.42657276E-3,.53065E-3,0
ALOS (DAICHI),2006-002A,2026-06-28T14:14:42.450432,14.70072060,.00010349,98.1329,135.1257,59.8646,300.2662,0,U,28931,999,8977,.17973129E-3,.103E-4,0
