SL-16 R/B               
1 23405U 94077B   26179.56825321  .00000049  00000+0  49563-4 0  9991
2 23405  70.9830 119.2190 0003576 317.7707  42.3140 14.15577798631928
ARIANE 40+ R/B          
1 23561U 95021B   26179.61017344  .00000235  00000+0  88830-4 0  9995
2 23561  98.4409 249.5200 0007184 160.1384   4.9323 14.39839226635202
SL-16 R/B               
1 23705U 95058B   26179.65123259 -.00000155  00000+0 -55053-4 0  9996
2 23705  71.0230 307.2888 0014474 304.6721  55.3037 14.15511799583553
SL-16 R/B               
1 24298U 96051B   26179.57494231  .00000126  00000+0  95020-4 0  9994
2 24298  70.7652 300.5483 0016449 320.4561  39.5357 14.12449902537308
ORBVIEW 2 (SEASTAR)     
1 24883U 97037A   26179.45062661  .00000236  00000+0  98143-4 0  9995
2 24883  98.8695 346.7822 0003336  93.9918 266.1648 14.35558957524363
SL-16 R/B               
1 25400U 98043G   26179.58891070  .00000034  00000+0  33114-4 0  9990
2 25400  98.8369 133.8465 0010786  56.5793 303.6416 14.26070339454790
SL-16 R/B               
1 25407U 98045B   26179.60774004  .00000261  00000+0  15577-3 0  9993
2 25407  71.0123 308.3110 0008890 227.0217 133.0162 14.16204771442803
ISS (ZARYA)             
1 25544U 98067A   26179.54140602  .00005887  00000+0  11310-3 0  9993
2 25544  51.6322 243.8877 0004259 242.8085 117.2470 15.49467065573519
CZ-4B R/B               
1 25732U 99025C   26179.64709141  .00000038  00000+0  39222-4 0  9993
2 25732  98.6478 221.1970 0037570  27.3400  83.7030 14.18285249403892
OKEAN-O                 
1 25860U 99039A   26179.63459294  .00000556  00000+0  79417-4 0  9995
2 25860  97.9312 238.3009 0001284  70.0578 290.0772 14.80480140450805
SL-16 R/B               
1 25861U 99039B   26179.57820599  .00000445  00000+0  63068-4 0  9991
2 25861  97.9834 238.4087 0013395 256.1399 103.8323 14.81855611453284
DELTA 2 R/B             
1 25876U 99041E   26179.50044235  .00001070  00000+0  21006-3 0  9998
2 25876  51.7626 218.6017 0501020 315.4544  40.7121 14.12035159378684
HELIOS 1B               
1 25977U 99064A   26179.61017446  .00001315  00000+0  14959-3 0  9992
2 25977  98.1605  85.0801 0002478  75.4512 284.6978 14.88035227701752
TERRA                   
1 25994U 99068A   26179.60840635  .00000379  00000+0  86126-4 0  9993
2 25994  97.9451 228.7016 0002469 157.6806 354.8700 14.61111672411278
SL-16 R/B               
1 26070U 00006B   26179.58125340  .00000227  00000+0  13952-3 0  9997
2 26070  71.0014 224.6676 0016267   5.0194 355.1089 14.15839493364252
TITAN 4B R/B            
1 26474U 00047B   26179.58409637  .00002548  00000+0  15997-3 0  9993
2 26474  67.9892  88.4931 0045896 275.6112  83.9805 15.10258076409657
ENVISAT                 
1 27386U 02009A   26179.60417862  .00000074  00000+0  37688-4 0  9992
2 27386  98.3838 130.6682 0001387  86.4123  86.9286 14.39067292275125
IDEFIX & ARIANE 42P R/B 
1 27422U 02021B   26179.59596924  .00000180  00000+0  84764-4 0  9997
2 27422  98.5944 116.9556 0010910 216.8844 143.1590 14.31086940259886
AQUA                    
1 27424U 02022A   26179.55153002  .00000741  00000+0  15714-3 0  9993
2 27424  98.4282 149.0617 0000735  68.6565 356.5379 14.62174378284930
CZ-4B R/B               
1 27432U 02024C   26179.64828642  .00000048  00000+0  47119-4 0  9998
2 27432  98.8695 232.3938 0051138  68.3567  94.6045 14.14565997244928
MIDORI II (ADEOS-II)    
1 27597U 02056A   26179.61830298  .00000221  00000+0  10444-3 0  9995
2 27597  98.7884 138.9756 0002042  61.9152 298.2236 14.29355359226140
H-2A R/B                
1 27601U 02056E   26179.61772312  .00000179  00000+0  77284-4 0  9991
2 27601  98.3316 135.8758 0069808 190.1466 343.3679 14.33826699230004
CZ-4B R/B               
1 28059U 03049C   26179.57724357  .00000250  00000+0  69037-4 0  9990
2 28059  98.6900 178.8774 0046918 252.9416 106.6637 14.55106840202723
CZ-2C R/B               
1 28222U 04012C   26179.24343267  .00112588  00000+0  56862-3 0  9993
2 28222  97.7075 256.2098 0010537 242.5776 117.4419 15.81206060221645
SL-16 R/B               
1 28353U 04021B   26179.61664657  .00000192  00000+0  12484-3 0  9997
2 28353  71.0007 359.7013 0006778 240.2572 119.7876 14.14608307138528
CZ-4B R/B               
1 28415U 04035C   26179.63803173  .00006854  00000+0  23011-3 0  9990
2 28415  97.3362 212.5829 0028946 295.1770  64.6469 15.30781837196870
CZ-2C R/B               
1 28480U 04046B   26179.62059952  .00000089  00000+0  48122-4 0  9996
2 28480  98.1937  87.6866 0139142 186.2988 173.6450 14.27028996124320
ARIANE 5 R/B            
1 28499U 04049H   26179.44665627  .00000546  00000+0  66615-4 0  9996
2 28499  98.2727 352.1349 0083649 353.0373   6.9672 14.85461669162234
CZ-2D R/B               
1 28738U 05024B   26179.62712399  .00053065  00000+0  42657-3 0  9998
2 28738  97.3472 199.6359 0001082  18.6981 341.4322 15.70817398157133
ALOS (DAICHI)           
1 28931U 06002A   26179.59354688  .00001030  00000+0  17973-3 0  9997
2 28931  98.1329 135.1257 0001034  59.8646 300.2662 14.70072060 89774
